[{"OBJECT_NAME":"STARLINK-35016","OBJECT_ID":"2025-189U","EPOCH":"2026-03-09T16:13:17.531904","MEAN_MOTION":15.30200147,"ECCENTRICITY":0.00010914,"INCLINATION":53.1572,"RA_OF_ASC_NODE":206.8759,"ARG_OF_PERICENTER":52.1383,"MEAN_ANOMALY":307.9716,"EPHEMERIS_TYPE":0,"CLASSIFICATION_TYPE":"U","NORAD_CAT_ID":65341,"ELEMENT_SET_NO":999,"REV_AT_EPOCH":3105,"BSTAR":0.001441323,"MEAN_MOTION_DOT":0.00042574,"MEAN_MOTION_DDOT":0},{"OBJECT_NAME":"CSSWE","OBJECT_ID":"2012-048D","EPOCH":"2026-03-09T08:13:05.901888","MEAN_MOTION":15.39093253,"ECCENTRICITY":0.00676686,"INCLINATION":64.6623,"RA_OF_ASC_NODE":70.3925,"ARG_OF_PERICENTER":202.9126,"MEAN_ANOMALY":156.8988,"EPHEMERIS_TYPE":0,"CLASSIFICATION_TYPE":"U","NORAD_CAT_ID":38761,"ELEMENT_SET_NO":999,"REV_AT_EPOCH":10100,"BSTAR":0.00070329542,"MEAN_MOTION_DOT":0.0002953,"MEAN_MOTION_DDOT":0}]
